start=new Date('2021-11-02T00:00:00.000Z').valueOf();
sats=[{"ELEMENT_SET_NO":"999","MEAN_MOTION_DDOT":"0.0000000000000","RCS_SIZE":"LARGE","BSTAR":"0.00005262300000","MEAN_MOTION_DOT":"0.00000502","ECCENTRICITY":"0.00015970","EPHEMERIS_TYPE":"0","GP_ID":"188695169","APOAPSIS":"548.327","COUNTRY_CODE":"US","ARG_OF_PERICENTER":"61.6335","DECAY_DATE":null,"MEAN_ELEMENT_THEORY":"SGP4","TLE_LINE1":"1 48360U 21038H   21305.83334480  .00000502  00000-0  52623-4 0  9998","TIME_SYSTEM":"UTC","SEMIMAJOR_AXIS":"6925.356","CENTER_NAME":"EARTH","PERIAPSIS":"546.115","REF_FRAME":"TEME","OBJECT_ID":"2021-038H","MEAN_ANOMALY":"298.4814","LAUNCH_DATE":"2021-05-04","EPOCH":"2021-11-01T20:00:00.990720","TLE_LINE2":"2 48360  53.0548 294.2568 0001597  61.6335 298.4814 15.06397694 27544","PERIOD":"95.592","REV_AT_EPOCH":"2754","RA_OF_ASC_NODE":"294.2568","FILE":"3196819","OBJECT_TYPE":"PAYLOAD","OBJECT_NAME":"STARLINK-2622","MEAN_MOTION":"15.06397694","NORAD_CAT_ID":"48360","INCLINATION":"53.0548","CLASSIFICATION_TYPE":"U","SITE":"AFETR"},{"INCLINATION":"53.0518","SITE":"AFETR","CLASSIFICATION_TYPE":"U","MEAN_MOTION":"15.06284415","NORAD_CAT_ID":"48361","FILE":"3196575","OBJECT_NAME":"STARLINK-2591","OBJECT_TYPE":"PAYLOAD","RA_OF_ASC_NODE":"295.8466","TLE_LINE2":"2 48361  53.0518 295.8466 0002017  76.6404 283.4810 15.06284415 28083","PERIOD":"95.599","REV_AT_EPOCH":"2808","EPOCH":"2021-11-01T11:57:09.894816","LAUNCH_DATE":"2021-05-04","SEMIMAJOR_AXIS":"6925.703","TLE_LINE1":"1 48361U 21038J   21305.49803119 -.00017909  00000-0 -11901-2 0  9994","TIME_SYSTEM":"UTC","CENTER_NAME":"EARTH","OBJECT_ID":"2021-038J","MEAN_ANOMALY":"283.4810","REF_FRAME":"TEME","PERIAPSIS":"546.171","MEAN_ELEMENT_THEORY":"SGP4","DECAY_DATE":null,"ARG_OF_PERICENTER":"76.6404","COUNTRY_CODE":"US","GP_ID":"188667191","APOAPSIS":"548.965","EPHEMERIS_TYPE":"0","MEAN_MOTION_DOT":"-0.00017909","ECCENTRICITY":"0.00020170","BSTAR":"-0.00119010000000","RCS_SIZE":"LARGE","MEAN_MOTION_DDOT":"0.0000000000000","ELEMENT_SET_NO":"999"},{"MEAN_MOTION_DDOT":"0.0000000000000","ELEMENT_SET_NO":"999","ECCENTRICITY":"0.00018390","MEAN_MOTION_DOT":"0.00160576","RCS_SIZE":"LARGE","BSTAR":"0.01069500000000","APOAPSIS":"549.974","GP_ID":"188667195","EPHEMERIS_TYPE":"0","ARG_OF_PERICENTER":"59.2484","MEAN_ELEMENT_THEORY":"SGP4","DECAY_DATE":null,"COUNTRY_CODE":"US","LAUNCH_DATE":"2021-05-04","REF_FRAME":"TEME","PERIAPSIS":"547.426","OBJECT_ID":"2021-038K","MEAN_ANOMALY":"300.8686","SEMIMAJOR_AXIS":"6926.835","TLE_LINE1":"1 48362U 21038K   21305.58918925  .00160576  00000-0  10695-1 0  9992","TIME_SYSTEM":"UTC","CENTER_NAME":"EARTH","REV_AT_EPOCH":"2810","PERIOD":"95.623","TLE_LINE2":"2 48362  53.0545 295.3066 0001839  59.2484 300.8686 15.05915086 28103","EPOCH":"2021-11-01T14:08:25.951200","OBJECT_TYPE":"PAYLOAD","OBJECT_NAME":"STARLINK-2578","FILE":"3196575","RA_OF_ASC_NODE":"295.3066","CLASSIFICATION_TYPE":"U","SITE":"AFETR","INCLINATION":"53.0545","NORAD_CAT_ID":"48362","MEAN_MOTION":"15.05915086"},{"APOAPSIS":"548.230","GP_ID":"188694919","EPHEMERIS_TYPE":"0","ARG_OF_PERICENTER":"79.6914","MEAN_ELEMENT_THEORY":"SGP4","DECAY_DATE":null,"COUNTRY_CODE":"US","MEAN_MOTION_DDOT":"0.0000000000000","ELEMENT_SET_NO":"999","ECCENTRICITY":"0.00014300","MEAN_MOTION_DOT":"0.00000176","RCS_SIZE":"LARGE","BSTAR":"0.00003068800000","OBJECT_TYPE":"PAYLOAD","OBJECT_NAME":"STARLINK-2626","FILE":"3196819","RA_OF_ASC_NODE":"288.7850","CLASSIFICATION_TYPE":"U","SITE":"AFETR","INCLINATION":"53.0553","NORAD_CAT_ID":"48363","MEAN_MOTION":"15.06391455","LAUNCH_DATE":"2021-05-04","REF_FRAME":"TEME","PERIAPSIS":"546.249","MEAN_ANOMALY":"280.4236","OBJECT_ID":"2021-038L","SEMIMAJOR_AXIS":"6925.375","TLE_LINE1":"1 48363U 21038L   21305.93886700  .00000176  00000-0  30688-4 0  9993","CENTER_NAME":"EARTH","TIME_SYSTEM":"UTC","PERIOD":"95.593","REV_AT_EPOCH":"2763","TLE_LINE2":"2 48363  53.0553 288.7850 0001430  79.6914 280.4236 15.06391455 27631","EPOCH":"2021-11-01T22:31:58.108800"},{"MEAN_ELEMENT_THEORY":"SGP4","DECAY_DATE":null,"ARG_OF_PERICENTER":"69.9706","COUNTRY_CODE":"US","GP_ID":"188695670","APOAPSIS":"548.484","EPHEMERIS_TYPE":"0","MEAN_MOTION_DOT":"0.00011258","ECCENTRICITY":"0.00018540","BSTAR":"0.00077338000000","RCS_SIZE":"LARGE","MEAN_MOTION_DDOT":"0.0000000000000","ELEMENT_SET_NO":"999","INCLINATION":"53.0547","SITE":"AFETR","CLASSIFICATION_TYPE":"U","MEAN_MOTION":"15.06404292","NORAD_CAT_ID":"48364","FILE":"3196819","OBJECT_NAME":"STARLINK-2611","OBJECT_TYPE":"PAYLOAD","RA_OF_ASC_NODE":"289.9990","TLE_LINE2":"2 48364  53.0547 289.9990 0001854  69.9706 290.1482 15.06404292 27594","REV_AT_EPOCH":"2759","PERIOD":"95.592","EPOCH":"2021-11-01T16:03:08.088768","LAUNCH_DATE":"2021-05-04","TLE_LINE1":"1 48364U 21038M   21305.66884362  .00011258  00000-0  77338-3 0  9991","CENTER_NAME":"EARTH","SEMIMAJOR_AXIS":"6925.335","TIME_SYSTEM":"UTC","MEAN_ANOMALY":"290.1482","OBJECT_ID":"2021-038M","REF_FRAME":"TEME","PERIAPSIS":"545.916"},{"MEAN_MOTION_DOT":"0.00000602","ECCENTRICITY":"0.00015220","BSTAR":"0.00005931000000","RCS_SIZE":"LARGE","MEAN_MOTION_DDOT":"0.0000000000000","ELEMENT_SET_NO":"999","DECAY_DATE":null,"MEAN_ELEMENT_THEORY":"SGP4","ARG_OF_PERICENTER":"84.4318","COUNTRY_CODE":"US","GP_ID":"188661135","APOAPSIS":"548.257","EPHEMERIS_TYPE":"0","TLE_LINE2":"2 48365  53.0567 291.2900 0001522  84.4318 275.6844 15.06403334 27559","REV_AT_EPOCH":"2755","PERIOD":"95.592","EPOCH":"2021-11-01T09:10:28.737120","LAUNCH_DATE":"2021-05-04","TIME_SYSTEM":"UTC","TLE_LINE1":"1 48365U 21038N   21305.38227705  .00000602  00000-0  59310-4 0  9995","SEMIMAJOR_AXIS":"6925.338","CENTER_NAME":"EARTH","MEAN_ANOMALY":"275.6844","OBJECT_ID":"2021-038N","REF_FRAME":"TEME","PERIAPSIS":"546.149","INCLINATION":"53.0567","SITE":"AFETR","CLASSIFICATION_TYPE":"U","MEAN_MOTION":"15.06403334","NORAD_CAT_ID":"48365","FILE":"3196301","OBJECT_NAME":"STARLINK-2608","OBJECT_TYPE":"PAYLOAD","RA_OF_ASC_NODE":"291.2900"},{"BSTAR":"0.00011382000000","RCS_SIZE":"LARGE","MEAN_MOTION_DOT":"0.00001415","ECCENTRICITY":"0.00014740","ELEMENT_SET_NO":"999","MEAN_MOTION_DDOT":"0.0000000000000","COUNTRY_CODE":"US","DECAY_DATE":null,"MEAN_ELEMENT_THEORY":"SGP4","ARG_OF_PERICENTER":"77.2561","EPHEMERIS_TYPE":"0","GP_ID":"188659883","APOAPSIS":"548.204","EPOCH":"2021-11-01T10:28:05.829312","TLE_LINE2":"2 48366  53.0548 286.0440 0001474  77.2561 282.8593 15.06410052 27620","PERIOD":"95.592","REV_AT_EPOCH":"2762","CENTER_NAME":"EARTH","TLE_LINE1":"1 48366U 21038P   21305.43617858  .00001415  00000-0  11382-3 0  9993","SEMIMAJOR_AXIS":"6925.318","TIME_SYSTEM":"UTC","MEAN_ANOMALY":"282.8593","OBJECT_ID":"2021-038P","REF_FRAME":"TEME","PERIAPSIS":"546.162","LAUNCH_DATE":"2021-05-04","MEAN_MOTION":"15.06410052","NORAD_CAT_ID":"48366","INCLINATION":"53.0548","SITE":"AFETR","CLASSIFICATION_TYPE":"U","RA_OF_ASC_NODE":"286.0440","FILE":"3196301","OBJECT_NAME":"STARLINK-2631","OBJECT_TYPE":"PAYLOAD"},{"ELEMENT_SET_NO":"999","MEAN_MOTION_DDOT":"0.0000000000000","BSTAR":"0.00023178000000","RCS_SIZE":"LARGE","ECCENTRICITY":"0.00015500","MEAN_MOTION_DOT":"0.00003173","EPHEMERIS_TYPE":"0","APOAPSIS":"548.257","GP_ID":"188667845","COUNTRY_CODE":"US","DECAY_DATE":null,"MEAN_ELEMENT_THEORY":"SGP4","ARG_OF_PERICENTER":"78.9278","MEAN_ANOMALY":"281.1885","OBJECT_ID":"2021-038Q","PERIAPSIS":"546.110","REF_FRAME":"TEME","TLE_LINE1":"1 48367U 21038Q   21305.43249760  .00003173  00000-0  23178-3 0  9996","TIME_SYSTEM":"UTC","SEMIMAJOR_AXIS":"6925.319","CENTER_NAME":"EARTH","LAUNCH_DATE":"2021-05-04","EPOCH":"2021-11-01T10:22:47.792640","REV_AT_EPOCH":"2821","PERIOD":"95.592","TLE_LINE2":"2 48367  53.0560 286.0691 0001550  78.9278 281.1885 15.06409773 28211","RA_OF_ASC_NODE":"286.0691","OBJECT_NAME":"STARLINK-2643","OBJECT_TYPE":"PAYLOAD","FILE":"3196585","NORAD_CAT_ID":"48367","MEAN_MOTION":"15.06409773","SITE":"AFETR","CLASSIFICATION_TYPE":"U","INCLINATION":"53.0560"},{"RA_OF_ASC_NODE":"285.0861","OBJECT_TYPE":"PAYLOAD","OBJECT_NAME":"STARLINK-2623","FILE":"3196819","NORAD_CAT_ID":"48368","MEAN_MOTION":"15.06384713","CLASSIFICATION_TYPE":"U","SITE":"AFETR","INCLINATION":"53.0557","PERIAPSIS":"546.400","REF_FRAME":"TEME","MEAN_ANOMALY":"280.7658","OBJECT_ID":"2021-038R","SEMIMAJOR_AXIS":"6925.395","TLE_LINE1":"1 48368U 21038R   21305.64904665 -.00001879  00000-0 -10731-3 0  9996","CENTER_NAME":"EARTH","TIME_SYSTEM":"UTC","LAUNCH_DATE":"2021-05-04","EPOCH":"2021-11-01T15:34:37.630560","PERIOD":"95.593","REV_AT_EPOCH":"2766","TLE_LINE2":"2 48368  53.0557 285.0861 0001242  79.3470 280.7658 15.06384713 27660","EPHEMERIS_TYPE":"0","APOAPSIS":"548.121","GP_ID":"188695170","COUNTRY_CODE":"US","ARG_OF_PERICENTER":"79.3470","DECAY_DATE":null,"MEAN_ELEMENT_THEORY":"SGP4","ELEMENT_SET_NO":"999","MEAN_MOTION_DDOT":"0.0000000000000","RCS_SIZE":"LARGE","BSTAR":"-0.00010731000000","ECCENTRICITY":"0.00012420","MEAN_MOTION_DOT":"-0.00001879"},{"REV_AT_EPOCH":"2767","PERIOD":"95.592","TLE_LINE2":"2 48369  53.0539 284.5930 0001651  70.9589 289.1578 15.06397008 27670","EPOCH":"2021-11-01T18:15:11.460384","LAUNCH_DATE":"2021-05-04","REF_FRAME":"TEME","PERIAPSIS":"546.079","MEAN_ANOMALY":"289.1578","OBJECT_ID":"2021-038S","SEMIMAJOR_AXIS":"6925.358","TLE_LINE1":"1 48369U 21038S   21305.76054931  .00000823  00000-0  74139-4 0  9991","CENTER_NAME":"EARTH","TIME_SYSTEM":"UTC","CLASSIFICATION_TYPE":"U","SITE":"AFETR","INCLINATION":"53.0539","NORAD_CAT_ID":"48369","MEAN_MOTION":"15.06397008","OBJECT_TYPE":"PAYLOAD","OBJECT_NAME":"STARLINK-2641","FILE":"3196819","RA_OF_ASC_NODE":"284.5930","ECCENTRICITY":"0.00016510","MEAN_MOTION_DOT":"0.00000823","RCS_SIZE":"LARGE","BSTAR":"0.00007413900000","MEAN_MOTION_DDOT":"0.0000000000000","ELEMENT_SET_NO":"999","ARG_OF_PERICENTER":"70.9589","DECAY_DATE":null,"MEAN_ELEMENT_THEORY":"SGP4","COUNTRY_CODE":"US","APOAPSIS":"548.366","GP_ID":"188694419","EPHEMERIS_TYPE":"0"}];
